start=new Date('2023-02-25T00:00:00.000Z').valueOf();
sats=[{"OBJECT_ID":"2022-051AX","CENTER_NAME":"EARTH","OBJECT_TYPE":"PAYLOAD","MEAN_ANOMALY":"273.8033","TIME_SYSTEM":"UTC","REF_FRAME":"TEME","MEAN_MOTION_DDOT":"0.0000000000000","SITE":"AFWTR","COUNTRY_CODE":"US","EPOCH":"2023-02-24T11:37:17.495328","RA_OF_ASC_NODE":"58.5374","GP_ID":"226706848","ECCENTRICITY":"0.00015780","OBJECT_NAME":"STARLINK-3915","ELEMENT_SET_NO":"999","ARG_OF_PERICENTER":"86.3140","FILE":"3832867","PERIOD":"95.438","TLE_LINE1":"1 52581U 22051AX  23055.48423027  .00018734  00000-0  11925-2 0  9999","SEMIMAJOR_AXIS":"6917.922","TLE_LINE2":"2 52581  53.2170  58.5374 0001578  86.3140 273.8033 15.08826332 44132","BSTAR":"0.00119250000000","EPHEMERIS_TYPE":"0","REV_AT_EPOCH":"4413","APOAPSIS":"540.879","MEAN_ELEMENT_THEORY":"SGP4","RCS_SIZE":"LARGE","LAUNCH_DATE":"2022-05-13","PERIAPSIS":"538.696","INCLINATION":"53.2170","MEAN_MOTION":"15.08826332","MEAN_MOTION_DOT":"0.00018734","DECAY_DATE":null,"NORAD_CAT_ID":"52581","CLASSIFICATION_TYPE":"U"},{"APOAPSIS":"540.793","REV_AT_EPOCH":"4416","EPHEMERIS_TYPE":"0","RCS_SIZE":"LARGE","MEAN_ELEMENT_THEORY":"SGP4","PERIAPSIS":"538.691","INCLINATION":"53.2170","LAUNCH_DATE":"2022-05-13","MEAN_MOTION_DOT":"0.00000025","MEAN_MOTION":"15.08841156","DECAY_DATE":null,"CLASSIFICATION_TYPE":"U","NORAD_CAT_ID":"52582","RA_OF_ASC_NODE":"57.6147","OBJECT_NAME":"STARLINK-3886","ECCENTRICITY":"0.00015190","GP_ID":"226778509","ARG_OF_PERICENTER":"86.2586","ELEMENT_SET_NO":"999","FILE":"3835059","PERIOD":"95.437","SEMIMAJOR_AXIS":"6917.877","TLE_LINE1":"1 52582U 22051AY  23055.69028727  .00000025  00000-0  19671-4 0  9993","BSTAR":"0.00001967100000","TLE_LINE2":"2 52582  53.2170  57.6147 0001519  86.2586 273.8580 15.08841156 44160","TIME_SYSTEM":"UTC","REF_FRAME":"TEME","MEAN_MOTION_DDOT":"0.0000000000000","SITE":"AFWTR","EPOCH":"2023-02-24T16:34:00.820128","COUNTRY_CODE":"US","OBJECT_ID":"2022-051AY","CENTER_NAME":"EARTH","OBJECT_TYPE":"PAYLOAD","MEAN_ANOMALY":"273.8580"},{"MEAN_MOTION_DDOT":"0.0000000000000","REF_FRAME":"TEME","TIME_SYSTEM":"UTC","SITE":"AFWTR","EPOCH":"2023-02-24T11:31:56.555616","COUNTRY_CODE":"US","CENTER_NAME":"EARTH","OBJECT_ID":"2022-051AZ","MEAN_ANOMALY":"266.4169","OBJECT_TYPE":"PAYLOAD","MEAN_ELEMENT_THEORY":"SGP4","RCS_SIZE":"LARGE","APOAPSIS":"540.574","EPHEMERIS_TYPE":"0","REV_AT_EPOCH":"4420","MEAN_MOTION_DOT":"0.00010837","MEAN_MOTION":"15.08870993","PERIAPSIS":"538.727","INCLINATION":"53.2154","LAUNCH_DATE":"2022-05-13","DECAY_DATE":null,"CLASSIFICATION_TYPE":"U","NORAD_CAT_ID":"52583","OBJECT_NAME":"STARLINK-3895","ECCENTRICITY":"0.00013350","GP_ID":"226720563","RA_OF_ASC_NODE":"58.5588","FILE":"3833335","ELEMENT_SET_NO":"999","ARG_OF_PERICENTER":"93.6976","SEMIMAJOR_AXIS":"6917.786","TLE_LINE1":"1 52583U 22051AZ  23055.48051569  .00010837  00000-0  69734-3 0  9997","PERIOD":"95.436","TLE_LINE2":"2 52583  53.2154  58.5588 0001335  93.6976 266.4169 15.08870993 44200","BSTAR":"0.00069734000000"},{"MEAN_ANOMALY":"253.2774","OBJECT_TYPE":"PAYLOAD","CENTER_NAME":"EARTH","OBJECT_ID":"2022-051BA","EPOCH":"2023-02-25T00:25:38.771904","COUNTRY_CODE":"US","SITE":"AFWTR","REF_FRAME":"TEME","MEAN_MOTION_DDOT":"0.0000000000000","TIME_SYSTEM":"UTC","BSTAR":"0.00005078600000","TLE_LINE2":"2 52584  53.2158  56.1451 0001545 106.8388 253.2774 15.08841086 44280","SEMIMAJOR_AXIS":"6917.877","TLE_LINE1":"1 52584U 22051BA  23056.01780986  .00000520  00000-0  50786-4 0  9996","PERIOD":"95.437","FILE":"3834872","ELEMENT_SET_NO":"999","ARG_OF_PERICENTER":"106.8388","OBJECT_NAME":"STARLINK-3922","GP_ID":"226750462","ECCENTRICITY":"0.00015450","RA_OF_ASC_NODE":"56.1451","CLASSIFICATION_TYPE":"U","NORAD_CAT_ID":"52584","DECAY_DATE":null,"MEAN_MOTION_DOT":"0.00000520","MEAN_MOTION":"15.08841086","INCLINATION":"53.2158","PERIAPSIS":"538.673","LAUNCH_DATE":"2022-05-13","MEAN_ELEMENT_THEORY":"SGP4","RCS_SIZE":"LARGE","APOAPSIS":"540.811","EPHEMERIS_TYPE":"0","REV_AT_EPOCH":"4428"},{"TIME_SYSTEM":"UTC","MEAN_MOTION_DDOT":"0.0000000000000","REF_FRAME":"TEME","SITE":"AFWTR","EPOCH":"2023-02-24T17:44:17.920320","COUNTRY_CODE":"US","OBJECT_ID":"2022-051BB","CENTER_NAME":"EARTH","OBJECT_TYPE":"PAYLOAD","MEAN_ANOMALY":"283.9106","APOAPSIS":"540.669","REV_AT_EPOCH":"4417","EPHEMERIS_TYPE":"0","MEAN_ELEMENT_THEORY":"SGP4","RCS_SIZE":"LARGE","PERIAPSIS":"539.213","INCLINATION":"53.2158","LAUNCH_DATE":"2022-05-13","MEAN_MOTION_DOT":"0.00084837","MEAN_MOTION":"15.08775993","DECAY_DATE":null,"CLASSIFICATION_TYPE":"U","NORAD_CAT_ID":"52585","RA_OF_ASC_NODE":"57.4049","OBJECT_NAME":"STARLINK-3906","ECCENTRICITY":"0.00010520","GP_ID":"226778260","ELEMENT_SET_NO":"999","ARG_OF_PERICENTER":"76.2003","FILE":"3835059","PERIOD":"95.442","SEMIMAJOR_AXIS":"6918.076","TLE_LINE1":"1 52585U 22051BB  23055.73909630  .00084837  00000-0  52943-2 0  9992","TLE_LINE2":"2 52585  53.2158  57.4049 0001052  76.2003 283.9106 15.08775993 44175","BSTAR":"0.00529430000000"},{"REF_FRAME":"TEME","MEAN_MOTION_DDOT":"0.0000000000000","TIME_SYSTEM":"UTC","SITE":"AFWTR","COUNTRY_CODE":"US","EPOCH":"2023-02-25T00:09:45.230400","CENTER_NAME":"EARTH","OBJECT_ID":"2022-051BC","MEAN_ANOMALY":"275.0792","OBJECT_TYPE":"PAYLOAD","RCS_SIZE":"LARGE","MEAN_ELEMENT_THEORY":"SGP4","REV_AT_EPOCH":"4428","EPHEMERIS_TYPE":"0","APOAPSIS":"540.830","MEAN_MOTION":"15.08834032","MEAN_MOTION_DOT":"0.00000727","LAUNCH_DATE":"2022-05-13","PERIAPSIS":"538.698","INCLINATION":"53.2169","DECAY_DATE":null,"NORAD_CAT_ID":"52586","CLASSIFICATION_TYPE":"U","GP_ID":"226750495","ECCENTRICITY":"0.00015410","OBJECT_NAME":"STARLINK-3910","RA_OF_ASC_NODE":"56.1915","FILE":"3834872","ELEMENT_SET_NO":"999","ARG_OF_PERICENTER":"85.0376","TLE_LINE1":"1 52586U 22051BC  23056.00677350  .00000727  00000-0  63753-4 0  9994","SEMIMAJOR_AXIS":"6917.899","PERIOD":"95.438","TLE_LINE2":"2 52586  53.2169  56.1915 0001541  85.0376 275.0792 15.08834032 44285","BSTAR":"0.00006375300000"},{"CENTER_NAME":"EARTH","OBJECT_ID":"2022-051BD","MEAN_ANOMALY":"272.1819","OBJECT_TYPE":"PAYLOAD","REF_FRAME":"TEME","MEAN_MOTION_DDOT":"0.0000000000000","TIME_SYSTEM":"UTC","SITE":"AFWTR","EPOCH":"2023-02-24T17:37:35.822496","COUNTRY_CODE":"US","OBJECT_NAME":"STARLINK-3867","ECCENTRICITY":"0.00013330","GP_ID":"226778759","RA_OF_ASC_NODE":"57.4159","FILE":"3835059","ELEMENT_SET_NO":"999","ARG_OF_PERICENTER":"87.9326","SEMIMAJOR_AXIS":"6917.811","TLE_LINE1":"1 52587U 22051BD  23055.73444239  .00010104  00000-0  65162-3 0  9997","PERIOD":"95.436","TLE_LINE2":"2 52587  53.2143  57.4159 0001333  87.9326 272.1819 15.08862708 44174","BSTAR":"0.00065162000000","MEAN_ELEMENT_THEORY":"SGP4","RCS_SIZE":"LARGE","APOAPSIS":"540.598","REV_AT_EPOCH":"4417","EPHEMERIS_TYPE":"0","MEAN_MOTION_DOT":"0.00010104","MEAN_MOTION":"15.08862708","INCLINATION":"53.2143","PERIAPSIS":"538.754","LAUNCH_DATE":"2022-05-13","DECAY_DATE":null,"CLASSIFICATION_TYPE":"U","NORAD_CAT_ID":"52587"},{"FILE":"3835059","ELEMENT_SET_NO":"999","ARG_OF_PERICENTER":"80.2740","GP_ID":"226777512","ECCENTRICITY":"0.00012750","OBJECT_NAME":"STARLINK-3917","RA_OF_ASC_NODE":"57.4378","BSTAR":"0.00039743000000","TLE_LINE2":"2 52588  53.2157  57.4378 0001275  80.2740 279.8396 15.08851624 44173","TLE_LINE1":"1 52588U 22051BE  23055.73076895  .00006045  00000-0  39743-3 0  9992","SEMIMAJOR_AXIS":"6917.845","PERIOD":"95.437","MEAN_MOTION":"15.08851624","MEAN_MOTION_DOT":"0.00006045","LAUNCH_DATE":"2022-05-13","PERIAPSIS":"538.828","INCLINATION":"53.2157","MEAN_ELEMENT_THEORY":"SGP4","RCS_SIZE":"LARGE","EPHEMERIS_TYPE":"0","REV_AT_EPOCH":"4417","APOAPSIS":"540.592","NORAD_CAT_ID":"52588","CLASSIFICATION_TYPE":"U","DECAY_DATE":null,"CENTER_NAME":"EARTH","OBJECT_ID":"2022-051BE","MEAN_ANOMALY":"279.8396","OBJECT_TYPE":"PAYLOAD","MEAN_MOTION_DDOT":"0.0000000000000","REF_FRAME":"TEME","TIME_SYSTEM":"UTC","COUNTRY_CODE":"US","EPOCH":"2023-02-24T17:32:18.437280","SITE":"AFWTR"},{"MEAN_MOTION_DDOT":"0.0000000000000","REF_FRAME":"TEME","TIME_SYSTEM":"UTC","SITE":"AFETR","EPOCH":"2023-02-24T20:02:40.213824","COUNTRY_CODE":"US","CENTER_NAME":"EARTH","OBJECT_ID":"2022-052A","MEAN_ANOMALY":"273.4435","OBJECT_TYPE":"PAYLOAD","MEAN_ELEMENT_THEORY":"SGP4","RCS_SIZE":"LARGE","APOAPSIS":"540.677","EPHEMERIS_TYPE":"0","REV_AT_EPOCH":"4418","MEAN_MOTION_DOT":"0.00000476","MEAN_MOTION":"15.08839946","INCLINATION":"53.2165","PERIAPSIS":"538.814","LAUNCH_DATE":"2022-05-14","DECAY_DATE":null,"CLASSIFICATION_TYPE":"U","NORAD_CAT_ID":"52598","OBJECT_NAME":"STARLINK-4019","ECCENTRICITY":"0.00013460","GP_ID":"226777761","RA_OF_ASC_NODE":"221.9632","FILE":"3835059","ARG_OF_PERICENTER":"86.6711","ELEMENT_SET_NO":"999","SEMIMAJOR_AXIS":"6917.881","TLE_LINE1":"1 52598U 22052A   23055.83518766  .00000476  00000-0  47970-4 0  9997","PERIOD":"95.438","BSTAR":"0.00004797000000","TLE_LINE2":"2 52598  53.2165 221.9632 0001346  86.6711 273.4435 15.08839946 44189"},{"NORAD_CAT_ID":"52599","CLASSIFICATION_TYPE":"U","DECAY_DATE":null,"LAUNCH_DATE":"2022-05-14","PERIAPSIS":"538.953","INCLINATION":"53.2150","MEAN_MOTION":"15.08838959","MEAN_MOTION_DOT":"0.00000929","REV_AT_EPOCH":"4426","EPHEMERIS_TYPE":"0","APOAPSIS":"540.544","RCS_SIZE":"LARGE","MEAN_ELEMENT_THEORY":"SGP4","BSTAR":"0.00007642600000","TLE_LINE2":"2 52599  53.2150 216.7644 0001150 100.4397 259.6725 15.08838959 44267","PERIOD":"95.438","TLE_LINE1":"1 52599U 22052B   23055.87892062  .00000929  00000-0  76426-4 0  9997","SEMIMAJOR_AXIS":"6917.884","ARG_OF_PERICENTER":"100.4397","ELEMENT_SET_NO":"999","FILE":"3835059","RA_OF_ASC_NODE":"216.7644","GP_ID":"226778510","ECCENTRICITY":"0.00011500","OBJECT_NAME":"STARLINK-4024","COUNTRY_CODE":"US","EPOCH":"2023-02-24T21:05:38.741568","SITE":"AFETR","TIME_SYSTEM":"UTC","MEAN_MOTION_DDOT":"0.0000000000000","REF_FRAME":"TEME","OBJECT_TYPE":"PAYLOAD","MEAN_ANOMALY":"259.6725","OBJECT_ID":"2022-052B","CENTER_NAME":"EARTH"}];
